GLOBALSTAR M057 [-]     
1 25943U 99058A   24005.29453238 -.00000127  00000+0 -30751-3 0  9991
2 25943  52.0000  49.1294 0002268   5.6567 354.4308 12.24780030102128
GLOBALSTAR M059 [-]     
1 25944U 99058B   24005.55395278 -.00000048  00000+0  47577-3 0  9995
2 25944  51.9983 197.2664 0001401  77.9469 285.2753 11.99959915510583
GLOBALSTAR M056 [-]     
1 25945U 99058C   24005.04766344 -.00000112  00000+0 -28542-3 0  9990
2 25945  51.9930 214.1903 0001014 123.1836  44.4705 12.04774456 98847
GLOBALSTAR M031 [-]     
1 25946U 99058D   24005.55679951 -.00000166  00000+0 -76415-3 0  9995
2 25946  51.9949 136.7500 0002127 156.1898 285.6418 12.16000742100230
GLOBALSTAR M039 [-]     
1 25961U 99062A   24005.54824774 -.00000095  00000+0  50848-4 0  9994
2 25961  51.9854  78.7802 0002472 243.5922 116.4691 12.62278313113458
GLOBALSTAR M034 [-]     
1 25962U 99062B   24005.31159365 -.00000059  00000+0  35449-3 0  9996
2 25962  51.9894 306.1284 0014210 120.1112  47.9231 11.79421895 75984
GLOBALSTAR M029 [-]     
1 25963U 99062C   24005.55052606 -.00000080  00000+0  72656-4 0  9999
2 25963  51.9811  85.7632 0003316 154.6828 311.6589 11.99872330105664
GLOBALSTAR M061 [-]     
1 25964U 99062D   24005.62970410 -.00000064  00000+0  27252-3 0  9993
2 25964  51.9786 122.3299 0006466  60.2800  42.0108 11.76756155 58956
